*******************************************************************************
JPL/HORIZONS                  84 Klio (A865 QA)            2023-Sep-04 11:04:17
Rec #:      84 (+COV) Soln.date: 2023-Aug-24_20:53:04   # obs: 3914 (1865-2023)
 
IAU76/J2000 helio. ecliptic osc. elements (au, days, deg., period=Julian yrs):
 
  EPOCH=  2456937.5 ! 2014-Oct-07.00 (TDB)         Residual RMS= .30734
   EC= .2365715512745373   QR= 1.803084892694392   TP= 2456876.7315185084
   OM= 327.5976398585441   W=  14.64444013279638   IN= 9.331150144586555
   A= 2.361825650726832    MA= 16.5010167670949    ADIST= 2.920566408759272
   PER= 3.62978            N= .271539067           ANGMOM= .025686158
   DAN= 1.81436            DDN= 2.89146            L= 342.0564741
   B= 2.3493437            MOID= .79565603         TP= 2014-Aug-07.2315185084
 
Asteroid physical parameters (km, seconds, rotational period in hours):
   GM= n.a.                RAD= 39.58              ROTPER= 23.562
   H= 9.37                 G= .150                 B-V= .733
                           ALBEDO= .0527           STYP= Ch

ASTEROID comments: 
1: soln ref.= JPL#106, OCC=0
2: source=ORB
*******************************************************************************


*******************************************************************************
Ephemeris / API_USER Mon Sep  4 11:04:17 2023 Pasadena, USA      / Horizons
*******************************************************************************
Target body name: 84 Klio (A865 QA)               {source: JPL#106}
Center body name: Solar System Barycenter (0)     {source: DE441}
Center-site name: BODY CENTER
*******************************************************************************
Start time      : A.D. 2023-Aug-12 00:00:00.0000 TDB
Stop  time      : A.D. 2023-Aug-13 00:00:00.0000 TDB
Step-size       : 2880 minutes
*******************************************************************************
Center geodetic : 0.0, 0.0, 0.0                   {E-lon(deg),Lat(deg),Alt(km)}
Center cylindric: 0.0, 0.0, 0.0                   {E-lon(deg),Dxy(km),Dz(km)}
Center radii    : (undefined)
Small perturbers: Yes                             {source: SB441-N16}
Output units    : KM-S
Calendar mode   : Mixed Julian/Gregorian
Output type     : GEOMETRIC cartesian states
Output format   : 2 (position and velocity)
Reference frame : Ecliptic of J2000.0
*******************************************************************************
Initial IAU76/J2000 heliocentric ecliptic osculating elements (au, days, deg.):
  EPOCH=  2456937.5 ! 2014-Oct-07.00 (TDB)         Residual RMS= .30734        
   EC= .2365715512745373   QR= 1.803084892694392   TP= 2456876.7315185084      
   OM= 327.5976398585441   W=  14.64444013279638   IN= 9.331150144586555       
  Equivalent ICRF heliocentric cartesian coordinates (au, au/d):
   X= 1.808599275283448E+00  Y= 1.831409474321002E-01  Z= 2.961936476126532E-01
  VX=-1.122055566749177E-03 VY= 1.197088741135749E-02 VZ= 7.174610029718962E-03
Asteroid physical parameters (km, seconds, rotational period in hours):        
   GM= n.a.                RAD= 39.58              ROTPER= 23.562              
   H= 9.37                 G= .150                 B-V= .733                   
                           ALBEDO= .0527           STYP= Ch                    
*******************************************************************************
JDTDB
   X     Y     Z
   VX    VY    VZ
*******************************************************************************
$$SOE
2460168.500000000 = A.D. 2023-Aug-12 00:00:00.0000 TDB 
 X =-4.059089604289051E+08 Y = 1.626879855952083E+08 Z =-1.306608024368666E+07
 VX=-5.883968595358020E+00 VY=-1.387237513694828E+01 VZ=-2.436381300350892E+00
$$EOE
*******************************************************************************
 
TIME

  Barycentric Dynamical Time ("TDB" or T_eph) output was requested. This
continuous coordinate time is equivalent to the relativistic proper time
of a clock at rest in a reference frame co-moving with the solar system
barycenter but outside the system's gravity well. It is the independent
variable in the solar system relativistic equations of motion.

  TDB runs at a uniform rate of one SI second per second and is independent
of irregularities in Earth's rotation.
 
CALENDAR SYSTEM

  Mixed calendar mode was active such that calendar dates after AD 1582-Oct-15
(if any) are in the modern Gregorian system. Dates prior to 1582-Oct-5 (if any)
are in the Julian calendar system, which is automatically extended for dates
prior to its adoption on 45-Jan-1 BC.  The Julian calendar is useful for
matching historical dates. The Gregorian calendar more accurately corresponds
to the Earth's orbital motion and seasons. A "Gregorian-only" calendar mode is
available if such physical events are the primary interest.

REFERENCE FRAME AND COORDINATES

  Ecliptic at the standard reference epoch

    Reference epoch: J2000.0
    X-Y plane: adopted Earth orbital plane at the reference epoch
               Note: IAU76 obliquity of 84381.448 arcseconds wrt ICRF X-Y plane
    X-axis   : ICRF
    Z-axis   : perpendicular to the X-Y plane in the directional (+ or -) sense
               of Earth's north pole at the reference epoch.

  Symbol meaning:

    JDTDB    Julian Day Number, Barycentric Dynamical Time
      X      X-component of position vector (km)
      Y      Y-component of position vector (km)
      Z      Z-component of position vector (km)
      VX     X-component of velocity vector (km/sec)                           
      VY     Y-component of velocity vector (km/sec)                           
      VZ     Z-component of velocity vector (km/sec)                           

ABERRATIONS AND CORRECTIONS

 Geometric state vectors have NO corrections or aberrations applied.

Computations by ...

    Solar System Dynamics Group, Horizons On-Line Ephemeris System
    4800 Oak Grove Drive, Jet Propulsion Laboratory
    Pasadena, CA  91109   USA

    General site: https://ssd.jpl.nasa.gov/
    Mailing list: https://ssd.jpl.nasa.gov/email_list.html
    System news : https://ssd.jpl.nasa.gov/horizons/news.html
    User Guide  : https://ssd.jpl.nasa.gov/horizons/manual.html
    Connect     : browser        https://ssd.jpl.nasa.gov/horizons/app.html#/x
                  API            https://ssd-api.jpl.nasa.gov/doc/horizons.html
                  command-line   telnet ssd.jpl.nasa.gov 6775
                  e-mail/batch   https://ssd.jpl.nasa.gov/ftp/ssd/hrzn_batch.txt
                  scripts        https://ssd.jpl.nasa.gov/ftp/ssd/SCRIPTS
    Author      : Jon.D.Giorgini@jpl.nasa.gov
*******************************************************************************
